{
  "type": "FeatureCollection",
  "features": [
    {
      "type": "Feature",
      "properties": {
        "id": "PURPLE_LINE",
        "name": "Purple Line (Challaghatta - Whitefield)",
        "line": "purple",
        "color": "#A855F7"
      },
      "geometry": {
        "type": "LineString",
        "coordinates": [
          [
            77.4667,
            12.8988
          ],
          [
            77.4789,
            12.908
          ],
          [
            77.4877,
            12.9152
          ],
          [
            77.4988,
            12.9234
          ],
          [
            77.5065,
            12.9304
          ],
          [
            77.516,
            12.9388
          ],
          [
            77.5255,
            12.9466
          ],
          [
            77.5348,
            12.9538
          ],
          [
            77.5422,
            12.9577
          ],
          [
            77.5501,
            12.962
          ],
          [
            77.5568,
            12.9664
          ],
          [
            77.5645,
            12.971
          ],
          [
            77.5675,
            12.9756
          ],
          [
            77.5705,
            12.9782
          ],
          [
            77.5727,
            12.9757
          ],
          [
            77.5833,
            12.9738
          ],
          [
            77.5925,
            12.9797
          ],
          [
            77.5997,
            12.981
          ],
          [
            77.6068,
            12.9755
          ],
          [
            77.6171,
            12.9729
          ],
          [
            77.6267,
            12.976
          ],
          [
            77.6385,
            12.9783
          ],
          [
            77.648,
            12.986
          ],
          [
            77.6534,
            12.9908
          ],
          [
            77.6625,
            12.995
          ],
          [
            77.6766,
            12.9986
          ],
          [
            77.6888,
            12.9965
          ],
          [
            77.7012,
            12.9934
          ],
          [
            77.7144,
            12.9912
          ],
          [
            77.7215,
            12.9877
          ],
          [
            77.7262,
            12.9798
          ],
          [
            77.7345,
            12.974
          ],
          [
            77.742,
            12.9698
          ],
          [
            77.7478,
            12.9675
          ],
          [
            77.7554,
            12.9732
          ],
          [
            77.7588,
            12.9835
          ],
          [
            77.761,
            12.996
          ]
        ]
      }
    },
    {
      "type": "Feature",
      "properties": {
        "id": "GREEN_LINE",
        "name": "Green Line (Madavara - Silk Institute)",
        "line": "green",
        "color": "#10B981"
      },
      "geometry": {
        "type": "LineString",
        "coordinates": [
          [
            77.476,
            13.0645
          ],
          [
            77.487,
            13.0535
          ],
          [
            77.495,
            13.045
          ],
          [
            77.5005,
            13.0385
          ],
          [
            77.5132,
            13.0435
          ],
          [
            77.5218,
            13.0392
          ],
          [
            77.5255,
            13.0315
          ],
          [
            77.5298,
            13.0232
          ],
          [
            77.5385,
            13.0185
          ],
          [
            77.5495,
            13.023
          ],
          [
            77.5545,
            13.0145
          ],
          [
            77.55,
            13.008
          ],
          [
            77.5552,
            13.0005
          ],
          [
            77.5585,
            12.993
          ],
          [
            77.563,
            12.987
          ],
          [
            77.5702,
            12.991
          ],
          [
            77.5727,
            12.9757
          ],
          [
            77.5742,
            12.966
          ],
          [
            77.575,
            12.9585
          ],
          [
            77.5735,
            12.9505
          ],
          [
            77.5795,
            12.946
          ],
          [
            77.5815,
            12.9375
          ],
          [
            77.58,
            12.9295
          ],
          [
            77.5795,
            12.9215
          ],
          [
            77.574,
            12.9155
          ],
          [
            77.5745,
            12.9075
          ],
          [
            77.5705,
            12.896
          ],
          [
            77.5665,
            12.8855
          ],
          [
            77.5595,
            12.8755
          ],
          [
            77.5525,
            12.866
          ],
          [
            77.5435,
            12.855
          ],
          [
            77.534,
            12.842
          ]
        ]
      }
    },
    {
      "type": "Feature",
      "properties": {
        "id": "YELLOW_LINE",
        "name": "Yellow Line (RV Road - Bommasandra)",
        "line": "yellow",
        "color": "#EAB308"
      },
      "geometry": {
        "type": "LineString",
        "coordinates": [
          [
            77.5795,
            12.9215
          ],
          [
            77.584,
            12.919
          ],
          [
            77.5884,
            12.917
          ],
          [
            77.5942,
            12.9168
          ],
          [
            77.6001,
            12.9167
          ],
          [
            77.6042,
            12.9166
          ],
          [
            77.6083,
            12.9166
          ],
          [
            77.6145,
            12.9165
          ],
          [
            77.6206,
            12.9165
          ],
          [
            77.6235,
            12.914
          ],
          [
            77.6266,
            12.9107
          ],
          [
            77.6295,
            12.906
          ],
          [
            77.6321,
            12.9017
          ],
          [
            77.637,
            12.895
          ],
          [
            77.6425,
            12.8885
          ],
          [
            77.6465,
            12.8838
          ],
          [
            77.6498,
            12.8796
          ],
          [
            77.6512,
            12.875
          ],
          [
            77.6525,
            12.8708
          ],
          [
            77.6552,
            12.8672
          ],
          [
            77.658,
            12.8639
          ],
          [
            77.6615,
            12.8585
          ],
          [
            77.665,
            12.853
          ],
          [
            77.6682,
            12.8495
          ],
          [
            77.6715,
            12.8461
          ],
          [
            77.6745,
            12.8425
          ],
          [
            77.6775,
            12.839
          ],
          [
            77.6794,
            12.834
          ],
          [
            77.6813,
            12.8291
          ],
          [
            77.6834,
            12.823
          ],
          [
            77.6855,
            12.8169
          ]
        ]
      }
    }
  ]
}